NORAD_CAT_ID,OBJECT_NAME,OBJECT_TYPE,EPOCH,MEAN_MOTION,ECCENTRICITY,INCLINATION,RA_OF_ASC_NODE,ARG_OF_PERICENTER,MEAN_ANOMALY,BSTAR,MEAN_MOTION_DOT,MEAN_MOTION_DDOT,TLE_LINE0,TLE_LINE1,TLE_LINE2,SEMIMAJOR_AXIS,PERIOD,APOGEE,PERIGEE,DECAYED
52676.0,STARLINK-4006,PAYLOAD,2024-07-30 10:06:55,15.08846177,0.0001443,53.2166,270.4685,101.8597,258.2557,-2.2877e-05,-6.52e-06,0.0,0 STARLINK-4006,1 52676U 22053W   24212.42147230 -.00000652  00000-0 -22877-4 0  9997,2 52676  53.2166 270.4685 0001443 101.8597 258.2557 15.08846177121955,6917.862,95.437,540.725,538.728,0.0
52676.0,STARLINK-4006,PAYLOAD,2024-07-30 21:14:37,15.08836473,0.0001514,53.2167,268.389,100.6295,259.4868,0.00013196,1.813e-05,0.0,0 STARLINK-4006,1 52676U 22053W   24212.88515590  .00001813  00000-0  13196-3 0  9996,2 52676  53.2167 268.3890 0001514 100.6295 259.4868 15.08836473122453,6917.891,95.438,540.804,538.709,0.0
52676.0,STARLINK-4006,PAYLOAD,2024-07-31 11:33:06,15.08836102,0.0001559,53.2169,265.7118,94.9229,265.1941,2.1125e-05,4.8e-07,0.0,0 STARLINK-4006,1 52676U 22053W   24213.48131988  .00000048  00000-0  21125-4 0  9999,2 52676  53.2169 265.7118 0001559  94.9229 265.1941 15.08836102122545,6917.892,95.438,540.836,538.679,0.0
52676.0,STARLINK-4006,PAYLOAD,2024-08-01 09:48:28,15.08851637,0.0001547,53.2167,261.5503,98.9627,261.154,0.00017717,2.534e-05,0.0,0 STARLINK-4006,1 52676U 22053W   24214.40866578  .00002534  00000-0  17717-3 0  9995,2 52676  53.2167 261.5503 0001547  98.9627 261.1540 15.08851637122257,6917.845,95.437,540.78,538.64,0.0
52676.0,STARLINK-4006,PAYLOAD,2024-08-02 12:50:02,15.08845068,0.0001315,53.2157,256.4975,80.3817,279.7324,7.3403e-05,8.81e-06,0.0,0 STARLINK-4006,1 52676U 22053W   24215.53475264  .00000881  00000-0  73403-4 0  9996,2 52676  53.2157 256.4975 0001315  80.3817 279.7324 15.08845068122426,6917.865,95.437,540.64,538.82,0.0
52676.0,STARLINK-4006,PAYLOAD,2024-08-03 03:08:31,15.08838902,0.0001462,53.2161,253.8226,94.5557,265.5602,1.3976e-05,-6.6e-07,0.0,0 STARLINK-4006,1 52676U 22053W   24216.13091732 -.00000066  00000-0  13976-4 0  9992,2 52676  53.2161 253.8226 0001462  94.5557 265.5602 15.08838902122513,6917.884,95.438,540.76,538.737,0.0
52676.0,STARLINK-4006,PAYLOAD,2024-08-03 09:30:03,15.08845336,0.0001491,53.2163,252.6319,90.2434,269.8729,1.3559e-05,-7.2e-07,0.0,0 STARLINK-4006,1 52676U 22053W   24216.39587277 -.00000072  00000-0  13559-4 0  9998,2 52676  53.2163 252.6319 0001491  90.2434 269.8729 15.08845336122981,6917.864,95.437,540.761,538.698,0.0
52676.0,STARLINK-4006,PAYLOAD,2024-08-03 19:02:22,15.08840001,0.0001417,53.2157,250.8472,82.6351,277.4802,2.8119e-05,1.6e-06,0.0,0 STARLINK-4006,1 52676U 22053W   24216.79331535  .00000160  00000-0  28119-4 0  9991,2 52676  53.2157 250.8472 0001417  82.6351 277.4802 15.08840001123044,6917.88,95.438,540.726,538.765,0.0
52676.0,STARLINK-4006,PAYLOAD,2024-08-04 10:56:13,15.0884373,0.0001454,53.2162,247.8742,80.637,279.4787,9.1641e-05,1.171e-05,0.0,0 STARLINK-4006,1 52676U 22053W   24217.45571247  .00001171  00000-0  91641-4 0  9994,2 52676  53.2162 247.8742 0001454  80.6370 279.4787 15.08843730122715,6917.869,95.437,540.74,538.728,0.0
52676.0,STARLINK-4006,PAYLOAD,2024-08-04 18:53:09,15.08839195,0.0001422,53.2159,246.3882,83.4723,276.6431,5.7004e-05,6.19e-06,0.0,0 STARLINK-4006,1 52676U 22053W   24217.78691668  .00000619  00000-0  57004-4 0  9991,2 52676  53.2159 246.3882 0001422  83.4723 276.6431 15.08839195123196,6917.883,95.438,540.732,538.764,0.0
52676.0,STARLINK-4006,PAYLOAD,2024-08-05 06:00:51,15.08839245,0.0001354,53.2158,244.3071,82.5823,277.5323,6.4365e-05,7.37e-06,0.0,0 STARLINK-4006,1 52676U 22053W   24218.25059789  .00000737  00000-0  64365-4 0  9995,2 52676  53.2158 244.3071 0001354  82.5823 277.5323 15.08839245123262,6917.883,95.438,540.684,538.811,0.0
52676.0,STARLINK-4006,PAYLOAD,2024-08-06 10:37:49,15.08829975,0.0001524,53.216,238.9508,85.821,274.2956,-3.9156e-05,-9.11e-06,0.0,0 STARLINK-4006,1 52676U 22053W   24219.44292992 -.00000911  00000-0 -39156-4 0  9998,2 52676  53.2160 238.9508 0001524  85.8210 274.2956 15.08829975123012,6917.911,95.438,540.83,538.722,0.0
52676.0,STARLINK-4006,PAYLOAD,2024-08-06 18:34:44,15.08826094,0.000151,53.2158,237.4643,88.9695,271.147,0.00010752,1.423e-05,0.0,0 STARLINK-4006,1 52676U 22053W   24219.77413014  .00001423  00000-0  10752-3 0  9991,2 52676  53.2158 237.4643 0001510  88.9695 271.1470 15.08826094123497,6917.923,95.438,540.833,538.743,0.0
52676.0,STARLINK-4006,PAYLOAD,2024-08-07 05:42:26,15.08836965,0.0001424,53.2152,235.3831,83.7405,276.3749,6.741e-05,7.85e-06,0.0,0 STARLINK-4006,1 52676U 22053W   24220.23780516  .00000785  00000-0  67410-4 0  9992,2 52676  53.2152 235.3831 0001424  83.7405 276.3749 15.08836965123138,6917.89,95.438,540.74,538.77,0.0
52676.0,STARLINK-4006,PAYLOAD,2024-08-08 10:19:21,15.08850184,0.0001438,53.2154,230.0299,87.8386,272.277,0.00023583,3.468e-05,0.0,0 STARLINK-4006,1 52676U 22053W   24221.43011300  .00003468  00000-0  23583-3 0  9996,2 52676  53.2154 230.0299 0001438  87.8386 272.2770 15.08850184123743,6917.849,95.437,540.709,538.719,0.0
52676.0,STARLINK-4006,PAYLOAD,2024-08-09 03:48:36,15.08845651,0.0001859,53.2152,226.7582,110.9183,249.2009,8.0318e-05,9.91e-06,0.0,0 STARLINK-4006,1 52676U 22053W   24222.15875887  .00000991  00000-0  80318-4 0  9992,2 52676  53.2152 226.7582 0001859 110.9183 249.2009 15.08845651123425,6917.863,95.437,541.014,538.442,0.0
52676.0,STARLINK-4006,PAYLOAD,2024-08-09 06:59:23,15.08838247,0.0001159,53.2164,226.159,104.6382,255.4739,0.0001723,2.455e-05,0.0,0 STARLINK-4006,1 52676U 22053W   24222.29123999  .00002455  00000-0  17230-3 0  9996,2 52676  53.2164 226.1590 0001159 104.6382 255.4739 15.08838247123449,6917.886,95.438,540.553,538.949,0.0
52676.0,STARLINK-4006,PAYLOAD,2024-08-10 05:14:47,15.08851468,0.0001884,53.2162,221.9971,109.5862,250.5333,-0.00021603,-3.726e-05,0.0,0 STARLINK-4006,1 52676U 22053W   24223.21860130 -.00003726  00000-0 -21603-3 0  9997,2 52676  53.2162 221.9971 0001884 109.5862 250.5333 15.08851468124015,6917.845,95.437,541.014,538.407,0.0
52676.0,STARLINK-4006,PAYLOAD,2024-08-11 06:40:57,15.0884556,0.0001564,53.2166,217.2463,96.2021,263.9149,0.00011373,1.523e-05,0.0,0 STARLINK-4006,1 52676U 22053W   24224.27843757  .00001523  00000-0  11373-3 0  9994,2 52676  53.2166 217.2463 0001564  96.2021 263.9149 15.08845560123745,6917.863,95.437,540.81,538.646,0.0
52676.0,STARLINK-4006,PAYLOAD,2024-08-11 16:13:16,15.08840931,0.0001485,53.216,215.4618,93.6225,266.4937,5.1041e-05,5.24e-06,0.0,0 STARLINK-4006,1 52676U 22053W   24224.67588177  .00000524  00000-0  51041-4 0  9997,2 52676  53.2160 215.4618 0001485  93.6225 266.4937 15.08840931123807,6917.878,95.437,540.77,538.715,0.0
52676.0,STARLINK-4006,PAYLOAD,2024-08-12 06:31:44,15.0884421,0.0001678,53.217,212.7871,109.7709,250.3465,0.0001872,2.693e-05,0.0,0 STARLINK-4006,1 52676U 22053W   24225.27203811  .00002693  00000-0  18720-3 0  9998,2 52676  53.2170 212.7871 0001678 109.7709 250.3465 15.08844210124329,6917.868,95.437,540.893,538.572,0.0
52676.0,STARLINK-4006,PAYLOAD,2024-08-12 16:04:02,15.08855833,0.0001425,53.2154,211.0002,95.3874,264.7281,0.00025999,3.854e-05,0.0,0 STARLINK-4006,1 52676U 22053W   24225.66947172  .00003854  00000-0  25999-3 0  9992,2 52676  53.2154 211.0002 0001425  95.3874 264.7281 15.08855833123958,6917.832,95.437,540.683,538.711,0.0
52676.0,STARLINK-4006,PAYLOAD,2024-08-13 04:47:07,15.08845311,0.0001903,53.2157,208.6189,84.7381,275.3828,-6.4681e-05,-1.318e-05,0.0,0 STARLINK-4006,1 52676U 22053W   24226.19939545 -.00001318  00000-0 -64681-4 0  9993,2 52676  53.2157 208.6189 0001903  84.7381 275.3828 15.08845311124030,6917.864,95.437,541.046,538.413,0.0
52676.0,STARLINK-4006,PAYLOAD,2024-08-13 07:57:54,15.08843726,0.000188,53.2158,208.0227,80.7338,279.3867,-9.5049e-05,-1.801e-05,0.0,0 STARLINK-4006,1 52676U 22053W   24226.33187574 -.00001801  00000-0 -95049-4 0  9995,2 52676  53.2158 208.0227 0001880  80.7338 279.3867 15.08843726124484,6917.869,95.437,541.035,538.433,0.0
52676.0,STARLINK-4006,PAYLOAD,2024-08-13 15:54:49,15.08845525,0.0001984,53.2162,206.534,74.63,285.4911,-0.00040861,-6.786e-05,0.0,0 STARLINK-4006,1 52676U 22053W   24226.66307391 -.00006786  00000-0 -40861-3 0  9990,2 52676  53.2162 206.5340 0001984  74.6300 285.4911 15.08845525124537,6917.864,95.437,541.101,538.356,0.0
52676.0,STARLINK-4006,PAYLOAD,2024-08-14 04:37:56,15.08826524,0.0001671,53.2178,204.1615,87.3854,272.7329,-0.00015746,-2.792e-05,0.0,0 STARLINK-4006,1 52676U 22053W   24227.19301856 -.00002792  00000-0 -15746-3 0  9996,2 52676  53.2178 204.1615 0001671  87.3854 272.7329 15.08826524124182,6917.922,95.438,540.943,538.631,0.0
52676.0,STARLINK-4006,PAYLOAD,2024-08-14 07:48:43,15.08825663,0.0001757,53.2184,203.564,88.6877,271.4316,-0.00013229,-2.392e-05,0.0,0 STARLINK-4006,1 52676U 22053W   24227.32549888 -.00002392  00000-0 -13229-3 0  9990,2 52676  53.2184 203.5640 0001757  88.6877 271.4316 15.08825663124639,6917.924,95.438,541.005,538.574,0.0
52676.0,STARLINK-4006,PAYLOAD,2024-08-14 15:45:38,15.08833958,0.000151,53.2173,202.0788,83.7125,276.4039,-9.2861e-05,-1.765e-05,0.0,0 STARLINK-4006,1 52676U 22053W   24227.65669340 -.00001765  00000-0 -92861-4 0  9995,2 52676  53.2173 202.0788 0001510  83.7125 276.4039 15.08833958124254,6917.899,95.438,540.808,538.719,0.0
52676.0,STARLINK-4006,PAYLOAD,2024-08-15 04:28:43,15.08838417,0.0001397,53.2157,199.6992,83.3423,276.7728,3.9039e-05,3.33e-06,0.0,0 STARLINK-4006,1 52676U 22053W   24228.18660999  .00000333  00000-0  39039-4 0  9991,2 52676  53.2157 199.6992 0001397  83.3423 276.7728 15.08838417124763,6917.885,95.438,540.717,538.784,0.0
52676.0,STARLINK-4006,PAYLOAD,2024-08-15 15:36:24,15.08843716,0.0001467,53.2158,197.6178,80.7546,279.3612,8.7499e-05,1.105e-05,0.0,0 STARLINK-4006,1 52676U 22053W   24228.65028639  .00001105  00000-0  87499-4 0  9993,2 52676  53.2158 197.6178 0001467  80.7546 279.3612 15.08843716124403,6917.869,95.437,540.749,538.719,0.0
